NORAD_CAT_ID,OBJECT_NAME,OBJECT_TYPE,EPOCH,MEAN_MOTION,ECCENTRICITY,INCLINATION,RA_OF_ASC_NODE,ARG_OF_PERICENTER,MEAN_ANOMALY,BSTAR,MEAN_MOTION_DOT,MEAN_MOTION_DDOT,TLE_LINE0,TLE_LINE1,TLE_LINE2,SEMIMAJOR_AXIS,PERIOD,APOGEE,PERIGEE,DECAYED
53283.0,STARLINK-4175,PAYLOAD,2023-09-02 14:08:15,15.08841757,0.0001036,53.2182,350.124,86.0901,274.021,8.3402e-05,1.04e-05,0.0,0 STARLINK-4175,1 53283U 22086AT  23245.58906746  .00001040  00000-0  83402-4 0  9996,2 53283  53.2182 350.1240 0001036  86.0901 274.0210 15.08841757 62272,6917.875,95.437,540.457,539.023,0.0
53283.0,STARLINK-4175,PAYLOAD,2023-09-03 09:12:53,15.08839019,0.0001081,53.218,346.5571,82.3785,277.7329,9.6928e-05,1.255e-05,0.0,0 STARLINK-4175,1 53283U 22086AT  23246.38394786  .00001255  00000-0  96928-4 0  9995,2 53283  53.2180 346.5571 0001081  82.3785 277.7329 15.08839019 62566,6917.883,95.438,540.496,539.001,0.0
53283.0,STARLINK-4175,PAYLOAD,2023-09-03 23:31:21,15.08843489,9.94e-05,53.2179,343.8795,89.0789,271.0317,-4.3857e-05,-9.86e-06,0.0,0 STARLINK-4175,1 53283U 22086AT  23246.98010687 -.00000986  00000-0 -43857-4 0  9991,2 53283  53.2179 343.8795 0000994  89.0789 271.0317 15.08843489 62483,6917.87,95.437,540.422,539.047,0.0
53283.0,STARLINK-4175,PAYLOAD,2023-09-04 09:03:41,15.08820602,0.0001007,53.2181,342.096,96.9692,263.1415,-0.00011885,-2.178e-05,0.0,0 STARLINK-4175,1 53283U 22086AT  23247.37756698 -.00002178  00000-0 -11885-3 0  9994,2 53283  53.2181 342.0960 0001007  96.9692 263.1415 15.08820602 62547,6917.94,95.439,540.501,539.108,0.0
53283.0,STARLINK-4175,PAYLOAD,2023-09-04 15:25:14,15.08829228,0.000169,53.217,340.903,81.9508,278.1675,-8.417e-05,-1.627e-05,0.0,0 STARLINK-4175,1 53283U 22086AT  23247.64252468 -.00001627  00000-0 -84170-4 0  9996,2 53283  53.2170 340.9030 0001690  81.9508 278.1675 15.08829228 62589,6917.913,95.438,540.947,538.609,0.0
53283.0,STARLINK-4175,PAYLOAD,2023-09-04 23:22:09,15.08838625,9.95e-05,53.2181,339.4208,102.3474,257.763,-6.3851e-05,-1.304e-05,0.0,0 STARLINK-4175,1 53283U 22086AT  23247.97371649 -.00001304  00000-0 -63851-4 0  9990,2 53283  53.2181 339.4208 0000995 102.3474 257.7630 15.08838625 62639,6917.885,95.438,540.438,539.061,0.0
53283.0,STARLINK-4175,PAYLOAD,2023-09-05 08:54:27,15.08838713,0.0001072,53.2181,337.6355,97.6254,262.486,7.3116e-05,8.76e-06,0.0,0 STARLINK-4175,1 53283U 22086AT  23248.37115430  .00000876  00000-0  73116-4 0  9995,2 53283  53.2181 337.6355 0001072  97.6254 262.4860 15.08838713 62862,6917.884,95.438,540.491,539.008,0.0
53283.0,STARLINK-4175,PAYLOAD,2023-09-06 08:45:14,15.08834841,0.0001049,53.2181,333.175,96.9802,263.131,0.00023013,3.376e-05,0.0,0 STARLINK-4175,1 53283U 22086AT  23249.36475472  .00003376  00000-0  23013-3 0  9998,2 53283  53.2181 333.1750 0001049  96.9802 263.1310 15.08834841 62841,6917.896,95.438,540.487,539.035,0.0
53283.0,STARLINK-4175,PAYLOAD,2023-09-07 08:36:00,15.0885776,0.0001027,53.2174,328.7134,102.3168,257.794,0.00031574,4.743e-05,0.0,0 STARLINK-4175,1 53283U 22086AT  23250.35834009  .00004743  00000-0  31574-3 0  9994,2 53283  53.2174 328.7134 0001027 102.3168 257.7940 15.08857760 62991,6917.826,95.436,540.402,538.981,0.0
53283.0,STARLINK-4175,PAYLOAD,2023-09-07 22:54:30,15.08841268,0.0001361,53.2169,326.0364,92.3248,267.79,-6.0305e-06,-3.84e-06,0.0,0 STARLINK-4175,1 53283U 22086AT  23250.95451928 -.00000384  00000-0 -60305-5 0  9990,2 53283  53.2169 326.0364 0001361  92.3248 267.7900 15.08841268 63083,6917.877,95.437,540.683,538.8,0.0
53283.0,STARLINK-4175,PAYLOAD,2023-09-08 10:02:11,15.08856363,0.0001476,53.2178,323.9547,95.5669,264.5492,-0.00015599,-2.771e-05,0.0,0 STARLINK-4175,1 53283U 22086AT  23251.41819172 -.00002771  00000-0 -15599-3 0  9996,2 53283  53.2178 323.9547 0001476  95.5669 264.5492 15.08856363 63152,6917.83,95.437,540.716,538.674,0.0
53283.0,STARLINK-4175,PAYLOAD,2023-09-08 11:37:35,15.08846197,0.00011,53.2178,323.6582,101.5872,258.5243,1.005e-06,-2.72e-06,0.0,0 STARLINK-4175,1 53283U 22086AT  23251.48443429 -.00000272  00000-0  10050-5 0  9993,2 53283  53.2178 323.6582 0001100 101.5872 258.5243 15.08846197 63337,6917.861,95.437,540.487,538.965,0.0
53283.0,STARLINK-4175,PAYLOAD,2023-09-08 14:48:21,15.08847595,0.0001117,53.2179,323.0629,105.9226,254.1889,2.1911e-06,-2.53e-06,0.0,0 STARLINK-4175,1 53283U 22086AT  23251.61691283 -.00000253  00000-0  21911-5 0  9998,2 53283  53.2179 323.0629 0001117 105.9226 254.1889 15.08847595 63356,6917.857,95.437,540.495,538.949,0.0
53283.0,STARLINK-4175,PAYLOAD,2023-09-09 00:20:40,15.08829356,0.0001113,53.2175,321.2789,98.475,261.6368,0.00017647,2.521e-05,0.0,0 STARLINK-4175,1 53283U 22086AT  23252.01435937  .00002521  00000-0  17647-3 0  9993,2 53283  53.2175 321.2789 0001113  98.4750 261.6368 15.08829356 63241,6917.913,95.438,540.548,539.008,0.0
53283.0,STARLINK-4175,PAYLOAD,2023-09-09 11:28:22,15.08838148,0.0001146,53.2175,319.1988,81.3261,278.7861,0.00010329,1.356e-05,0.0,0 STARLINK-4175,1 53283U 22086AT  23252.47803835  .00001356  00000-0  10329-3 0  9994,2 53283  53.2175 319.1988 0001146  81.3261 278.7861 15.08838148 63484,6917.886,95.438,540.544,538.958,0.0
53283.0,STARLINK-4175,PAYLOAD,2023-09-09 14:39:08,15.08842365,0.0001138,53.2173,318.6037,83.8439,276.2683,0.00010288,1.35e-05,0.0,0 STARLINK-4175,1 53283U 22086AT  23252.61051584  .00001350  00000-0  10288-3 0  9994,2 53283  53.2173 318.6037 0001138  83.8439 276.2683 15.08842365 63331,6917.873,95.437,540.525,538.951,0.0
53283.0,STARLINK-4175,PAYLOAD,2023-09-10 00:11:27,15.08836875,0.0001216,53.2173,316.82,87.6999,272.4132,4.2022e-05,3.81e-06,0.0,0 STARLINK-4175,1 53283U 22086AT  23253.00796171  .00000381  00000-0  42022-4 0  9991,2 53283  53.2173 316.8200 0001216  87.6999 272.4132 15.08836875 63395,6917.89,95.438,540.596,538.914,0.0
53283.0,STARLINK-4175,PAYLOAD,2023-09-10 11:19:09,15.08845466,0.0001205,53.2173,314.7383,86.6468,273.4662,5.762e-05,6.29e-06,0.0,0 STARLINK-4175,1 53283U 22086AT  23253.47163610  .00000629  00000-0  57620-4 0  9993,2 53283  53.2173 314.7383 0001205  86.6468 273.4662 15.08845466 63634,6917.864,95.437,540.562,538.895,0.0
53283.0,STARLINK-4175,PAYLOAD,2023-09-11 00:02:15,15.0883307,0.0001284,53.217,312.3602,85.2789,274.835,2.5813e-05,1.23e-06,0.0,0 STARLINK-4175,1 53283U 22086AT  23254.00156541  .00000123  00000-0  25813-4 0  9996,2 53283  53.2170 312.3602 0001284  85.2789 274.8350 15.08833070 63544,6917.902,95.438,540.655,538.878,0.0
53283.0,STARLINK-4175,PAYLOAD,2023-09-11 11:09:57,15.08837221,0.0001289,53.2171,310.2792,88.6484,271.4656,6.8555e-05,8.03e-06,0.0,0 STARLINK-4175,1 53283U 22086AT  23254.46524336  .00000803  00000-0  68555-4 0  9992,2 53283  53.2171 310.2792 0001289  88.6484 271.4656 15.08837221 63786,6917.889,95.438,540.646,538.862,0.0
53283.0,STARLINK-4175,PAYLOAD,2023-09-11 20:42:15,15.08841215,0.0001296,53.2179,308.4957,90.678,269.436,4.7048e-05,4.61e-06,0.0,0 STARLINK-4175,1 53283U 22086AT  23254.86268163  .00000461  00000-0  47048-4 0  9993,2 53283  53.2179 308.4957 0001296  90.6780 269.4360 15.08841215 63671,6917.877,95.437,540.638,538.845,0.0
53283.0,STARLINK-4175,PAYLOAD,2023-09-12 12:36:06,15.08851529,0.0001274,53.2171,305.5215,86.6725,273.4413,0.00012212,1.657e-05,0.0,0 STARLINK-4175,1 53283U 22086AT  23255.52507325  .00001657  00000-0  12212-3 0  9995,2 53283  53.2171 305.5215 0001274  86.6725 273.4413 15.08851529 63941,6917.845,95.437,540.591,538.829,0.0
53283.0,STARLINK-4175,PAYLOAD,2023-09-12 20:33:02,15.08842802,0.0001329,53.2181,304.0316,92.2755,267.8389,8.6243e-05,1.085e-05,0.0,0 STARLINK-4175,1 53283U 22086AT  23255.85627895  .00001085  00000-0  86243-4 0  9997,2 53283  53.2181 304.0316 0001329  92.2755 267.8389 15.08842802 63993,6917.872,95.437,540.656,538.817,0.0
53283.0,STARLINK-4175,PAYLOAD,2023-09-12 23:43:48,15.08838684,0.0001348,53.2171,303.4398,93.5789,266.5357,0.00012557,1.711e-05,0.0,0 STARLINK-4175,1 53283U 22086AT  23255.98876121  .00001711  00000-0  12557-3 0  9991,2 53283  53.2171 303.4398 0001348  93.5789 266.5357 15.08838684 63845,6917.884,95.438,540.682,538.817,0.0
53283.0,STARLINK-4175,PAYLOAD,2023-09-13 09:16:07,15.08847308,0.0001393,53.2159,301.6533,92.8614,267.2538,0.00016481,2.336e-05,0.0,0 STARLINK-4175,1 53283U 22086AT  23256.38619498  .00002336  00000-0  16481-3 0  9992,2 53283  53.2159 301.6533 0001393  92.8614 267.2538 15.08847308 63900,6917.858,95.437,540.687,538.759,0.0
53283.0,STARLINK-4175,PAYLOAD,2023-09-13 10:51:30,15.08848162,0.0001334,53.2163,301.3564,90.7161,269.3984,0.00017202,2.451e-05,0.0,0 STARLINK-4175,1 53283U 22086AT  23256.45243422  .00002451  00000-0  17202-3 0  9990,2 53283  53.2163 301.3564 0001334  90.7161 269.3984 15.08848162 64082,6917.855,95.437,540.643,538.798,0.0
53283.0,STARLINK-4175,PAYLOAD,2023-09-13 20:23:49,15.08834791,0.0001566,53.2165,299.5745,79.6238,280.493,-2.9681e-05,-7.6e-06,0.0,0 STARLINK-4175,1 53283U 22086AT  23256.84988385 -.00000760  00000-0 -29681-4 0  9995,2 53283  53.2165 299.5745 0001566  79.6238 280.4930 15.08834791 64146,6917.896,95.438,540.845,538.678,0.0
53283.0,STARLINK-4175,PAYLOAD,2023-09-14 02:45:22,15.08829878,0.0001709,53.2154,298.3857,79.9018,280.2167,-0.00010233,-1.916e-05,0.0,0 STARLINK-4175,1 53283U 22086AT  23257.11484895 -.00001916  00000-0 -10233-3 0  9999,2 53283  53.2154 298.3857 0001709  79.9018 280.2167 15.08829878 64019,6917.911,95.438,540.959,538.594,0.0
53283.0,STARLINK-4175,PAYLOAD,2023-09-14 12:17:42,15.08826335,0.0001376,53.217,296.598,100.8512,259.2635,-0.00016903,-2.976e-05,0.0,0 STARLINK-4175,1 53283U 22086AT  23257.51229294 -.00002976  00000-0 -16903-3 0  9990,2 53283  53.2170 296.5980 0001376 100.8512 259.2635 15.08826335 64243,6917.922,95.438,540.739,538.835,0.0
53283.0,STARLINK-4175,PAYLOAD,2023-09-14 20:14:38,15.08831528,0.0001468,53.2181,295.1107,88.8287,271.2873,-5.7337e-05,-1.2e-05,0.0,0 STARLINK-4175,1 53283U 22086AT  23257.84349735 -.00001200  00000-0 -57337-4 0  9995,2 53283  53.2181 295.1107 0001468  88.8287 271.2873 15.08831528 64290,6917.906,95.438,540.787,538.756,0.0
